     2.100          NAVIGATION                              RINEX VERSION / TYPE
fic2rin                                 10/17/2014 00:19:50 PGM / RUN BY / DATE
                                                            END OF HEADER
31 14 10 16 19 59 44.0  .330449081957D-03 -.454747350886D-12  .000000000000D+00
     .100000000000D+02  .434375000000D+02  .399838083433D-08 -.287728647618D+01
     .223517417908D-05  .811653141864D-02  .915303826332D-05  .515365003395D+04
     .417584000000D+06  .745058059692D-08 -.103510368692D+01  .968575477600D-07
     .977096755590D+00  .212468750000D+03 -.628285365487D+00 -.773389357628D-08
    -.114647632677D-09  .100000000000D+01  .181400000000D+04  .000000000000D+00
     .240000000000D+01  .000000000000D+00 -.130385160446D-07  .100000000000D+02
     .410406000000D+06  .400000000000D+01
 1 14 10 16 20  0  0.0  .225575640798D-04  .454747350886D-12  .000000000000D+00
     .280000000000D+02 -.360625000000D+02  .453197448921D-08 -.232275885234D+01
    -.199675559998D-05  .360169541091D-02  .960193574429D-05  .515367485619D+04
     .417600000000D+06  .372529029846D-07  .208086349735D+01 -.912696123123D-07
     .961194062185D+00  .195750000000D+03  .437609690966D+00 -.793854495798D-08
     .152506352502D-09  .100000000000D+01  .181400000000D+04  .000000000000D+00
     .240000000000D+01  .000000000000D+00  .558793544769D-08  .280000000000D+02
     .410406000000D+06  .400000000000D+01
 2 14 10 16 20  0  0.0  .524553470314D-03  .227373675443D-11  .000000000000D+00
     .620000000000D+02 -.214687500000D+02  .502806658201D-08 -.159517175749D+01
    -.112131237984D-05  .138204832328D-01  .902079045773D-05  .515369488335D+04
     .417600000000D+06  .238418579102D-06  .204815101355D+01 -.121071934700D-06
     .939745924716D+00  .191031250000D+03 -.237954510874D+01 -.807533637017D-08
     .202865593023D-09  .100000000000D+01  .181400000000D+04  .000000000000D+00
     .240000000000D+01  .000000000000D+00 -.200234353542D-07  .620000000000D+02
     .410406000000D+06  .400000000000D+01
 5 14 10 16 20  0  0.0 -.328723806888D-03  .409272615798D-11  .000000000000D+00
     .720000000000D+02  .300312500000D+02  .511664170009D-08  .756994691639D+00
     .174529850483D-05  .390246836469D-02  .696629285812D-05  .515369857597D+04
     .417600000000D+06  .335276126862D-07  .311699765352D+01  .130385160446D-07
     .947312691467D+00  .235156250000D+03  .361496286937D+00 -.835249077191D-08
     .303584074067D-10  .100000000000D+01  .181400000000D+04  .000000000000D+00
     .240000000000D+01  .000000000000D+00 -.102445483208D-07  .720000000000D+02
     .410406000000D+06  .400000000000D+01
 7 14 10 16 20  0  0.0  .402925070375D-03  .397903932026D-11  .000000000000D+00
     .680000000000D+02  .204375000000D+02  .407338395851D-08 -.284304581938D+01
     .102631747723D-05  .800063495990D-02  .884942710400D-05  .515361207008D+04
     .417600000000D+06 -.633299350739D-07 -.104187920078D+01 -.819563865662D-07
     .972177762306D+00  .215281250000D+03 -.276799609577D+01 -.776960934970D-08
    -.746459664470D-10  .100000000000D+01  .181400000000D+04  .000000000000D+00
     .240000000000D+01  .000000000000D+00 -.107102096081D-07  .680000000000D+02
     .410406000000D+06  .400000000000D+01
 9 14 10 16 20  0  0.0  .951113179326D-05 -.511590769747D-11  .000000000000D+00
     .580000000000D+02  .559375000000D+01  .470626746350D-08 -.173522874754D+01
     .242143869400D-06  .332762836479D-03  .669807195663D-05  .515372778702D+04
     .417600000000D+06 -.111758708954D-07 -.211701002041D+01 -.149011611938D-07
     .959281802966D+00  .248531250000D+03 -.278540644036D+01 -.817105464294D-08
    -.293940815243D-09  .100000000000D+01  .181400000000D+04  .000000000000D+00
     .240000000000D+01  .000000000000D+00  .372529029846D-08  .580000000000D+02
     .410406000000D+06  .400000000000D+01
11 14 10 16 20  0  0.0 -.529205892235D-03 -.284217094304D-11  .000000000000D+00
     .950000000000D+02 -.596875000000D+02  .602703676456D-08 -.273273197710D+01
    -.322423875332D-05  .156159745529D-01  .794604420662D-05  .515371623802D+04
     .417600000000D+06  .257045030594D-06  .174633904274D+01 -.372529029846D-08
     .891189764557D+00  .183843750000D+03  .134668401964D+01 -.852535511526D-08
     .140720147273D-09  .100000000000D+01  .181400000000D+04  .000000000000D+00
     .240000000000D+01  .000000000000D+00 -.121071934700D-07  .950000000000D+02
     .410406000000D+06  .400000000000D+01
12 14 10 16 20  0  0.0  .239350832999D-03  .272848410532D-11  .000000000000D+00
     .690000000000D+02  .145625000000D+02  .385980363346D-08  .304124310183D+01
     .761821866035D-06  .505804934073D-02  .552088022232D-05  .515352863121D+04
     .417600000000D+06  .149011611938D-07  .228840135082D-01 -.614672899246D-07
     .988821210132D+00  .287062500000D+03  .500047632922D+00 -.783104047998D-08
     .208580116771D-09  .100000000000D+01  .181400000000D+04  .000000000000D+00
     .240000000000D+01  .000000000000D+00 -.121071934700D-07  .690000000000D+02
     .410406000000D+06  .400000000000D+01
13 14 10 16 20  0  0.0 -.516423024237D-04 -.363797880709D-11  .000000000000D+00
     .330000000000D+02  .337500000000D+01  .432196574151D-08 -.891879290512D+00
     .102445483208D-06  .588945439085D-02  .715814530849D-05  .515591862106D+04
     .417600000000D+06 -.856816768646D-07 -.200549469668D+01 -.335276126862D-07
     .976063383906D+00  .249125000000D+03  .223039828744D+01 -.803283459980D-08
    -.257153568621D-09  .100000000000D+01  .181400000000D+04  .000000000000D+00
     .240000000000D+01  .000000000000D+00 -.111758708954D-07  .330000000000D+02
     .410406000000D+06  .400000000000D+01
14 14 10 16 20  0  0.0  .124799553305D-03 -.363797880709D-11  .000000000000D+00
     .560000000000D+02  .971875000000D+01  .455447542647D-08 -.196420583077D+00
     .527128577232D-06  .789398176130D-02  .737048685551D-05  .515373140717D+04
     .417600000000D+06 -.130385160446D-07 -.203845009509D+01  .819563865662D-07
     .968609099463D+00  .243750000000D+03 -.197328061444D+01 -.820819904729D-08
    -.354300472323D-09  .100000000000D+01  .181400000000D+04  .000000000000D+00
     .240000000000D+01  .000000000000D+00 -.884756445885D-08  .560000000000D+02
     .410406000000D+06  .400000000000D+01
15 14 10 16 20  0  0.0 -.209006480873D-03 -.216004991671D-11  .000000000000D+00
     .300000000000D+02  .687500000000D+01  .525129016589D-08 -.831048127073D+00
     .309199094772D-06  .667211588006D-02  .667013227940D-05  .515378002357D+04
     .417600000000D+06  .162050127983D-06 -.215521813883D+01 -.558793544769D-08
     .935292113048D+00  .237843750000D+03  .290991059826D+00 -.843606568171D-08
    -.309298597814D-09  .100000000000D+01  .181400000000D+04  .000000000000D+00
     .240000000000D+01  .000000000000D+00 -.102445483208D-07  .300000000000D+02
     .410406000000D+06  .400000000000D+01
16 14 10 16 20  0  0.0 -.187662430108D-03  .272848410532D-11  .000000000000D+00
     .540000000000D+02  .191250000000D+02  .387944730884D-08  .876970108662D+00
     .108778476715D-05  .767613900825D-02  .566430389881D-05  .515367893410D+04
     .417600000000D+06 -.167638063431D-07  .414864154357D-01  .128522515297D-06
     .989397890976D+00  .283656250000D+03  .234306460147D+00 -.796497463031D-08
     .144291724615D-09  .100000000000D+01  .181400000000D+04  .000000000000D+00
     .240000000000D+01  .000000000000D+00 -.102445483208D-07  .540000000000D+02
     .410406000000D+06  .400000000000D+01
17 14 10 16 20  0  0.0 -.131170265377D-03 -.261479726760D-11  .000000000000D+00
     .200000000000D+02 -.479375000000D+02  .448125809096D-08 -.277318899560D-01
    -.256113708019D-05  .956595968455D-02  .634789466858D-05  .515366066933D+04
     .417600000000D+06 -.856816768646D-07  .107103558235D+01  .117346644402D-06
     .969878688529D+00  .265375000000D+03 -.209143084659D+01 -.825641534141D-08
     .210723063176D-10  .100000000000D+01  .181400000000D+04  .000000000000D+00
     .240000000000D+01  .000000000000D+00 -.102445483208D-07  .200000000000D+02
     .410406000000D+06  .400000000000D+01
18 14 10 16 20  0  0.0  .351804774255D-03  .250111042988D-11  .000000000000D+00
     .580000000000D+02  .227500000000D+02  .564094925389D-08  .146385010291D+01
     .105984508991D-05  .154842241900D-01  .756047666073D-05  .515373328400D+04
     .417600000000D+06 -.370666384697D-06  .310865318196D+01 -.137835741043D-06
     .925867456427D+00  .219750000000D+03 -.200681932365D+01 -.869071914619D-08
     .996470078407D-10  .100000000000D+01  .181400000000D+04  .000000000000D+00
     .240000000000D+01  .000000000000D+00 -.107102096081D-07  .580000000000D+02
     .410406000000D+06  .400000000000D+01
19 14 10 16 20  0  0.0 -.483770389110D-03 -.181898940355D-11  .000000000000D+00
     .760000000000D+02 -.633125000000D+02  .450268755501D-08 -.889622910537D+00
    -.319629907608D-05  .106486314908D-01  .602379441261D-05  .515366012764D+04
     .417600000000D+06  .281259417534D-06  .112139762856D+01  .298023223877D-07
     .966948367064D+00  .263156250000D+03  .508553110318D+00 -.820212736581D-08
    -.103575742917D-10  .100000000000D+01  .181400000000D+04  .000000000000D+00
     .240000000000D+01  .000000000000D+00 -.149011611938D-07  .760000000000D+02
     .410406000000D+06  .400000000000D+01
20 14 10 16 20  0  0.0  .245932955295D-03  .432009983342D-11  .000000000000D+00
     .870000000000D+02  .295937500000D+02  .543308345259D-08  .197718738545D+01
     .141561031342D-05  .609315373003D-02  .767223536968D-05  .515371180344D+04
     .417600000000D+06 -.130385160446D-07  .305576711930D+01 -.145286321640D-06
     .926954904878D+00  .211406250000D+03  .132921545968D+01 -.839034949173D-08
     .155363614375D-09  .100000000000D+01  .181400000000D+04  .000000000000D+00
     .240000000000D+01  .000000000000D+00 -.791624188423D-08  .870000000000D+02
     .410406000000D+06  .400000000000D+01
